IRIDIUM 63              
1 25286U 98021B   25191.72298009  .00000244  00000+0  76498-4 0  9995
2 25286  86.3957  72.2574 0002083  90.3886 269.7550 14.36558863427227
IRIDIUM 69              
1 25319U 98026A   25191.73285096  .00000315  00000+0  91886-4 0  9997
2 25319  86.3959  85.4736 0001619  10.8026 349.3208 14.40985729426458
IRIDIUM 71              
1 25320U 98026B   25191.73660564  .00000262  00000+0  74949-4 0  9998
2 25320  86.3954  80.1579 0003370  47.7323 312.4162 14.41173084426989
IRIDIUM 73              
1 25344U 98032C   25191.63519629  .00000330  00000+0  77095-4 0  9996
2 25344  86.4396  36.8543 0001567  85.9109 274.2275 14.51733532433964
IRIDIUM 82              
1 25467U 98051A   25191.79223687  .00015368  00000+0  43038-3 0  9992
2 25467  86.3648  98.1247 0081614 205.0243 154.7038 15.33115414427579
